ONEWEB-0012             
1 44057U 19010A   24033.95179257  .00000011  00000+0 -49603-5 0  9997
2 44057  87.9044  40.9982 0002767  93.5979 266.5468 13.16595251237715
ONEWEB-0010             
1 44058U 19010B   24033.52113922  .00000027  00000+0  38100-4 0  9993
2 44058  87.9041  41.0623 0002324  77.8712 282.2679 13.16592443237704
ONEWEB-0008             
1 44059U 19010C   24033.92647867  .00000029  00000+0  41773-4 0  9990
2 44059  87.9042  40.9834 0001674  97.4922 262.6399 13.16594829237875
ONEWEB-0007             
1 44060U 19010D   24033.65452504 -.00000050  00000+0 -16782-3 0  9991
2 44060  87.8964  71.4776 0002305  95.4425 264.6968 13.15543641237577
ONEWEB-0006             
1 44061U 19010E   24033.48822782  .00000089  00000+0  20229-3 0  9993
2 44061  87.8955  71.4981 0002158  90.0866 270.0512 13.15548412237603
ONEWEB-0011             
1 44062U 19010F   24033.62837155  .00000173  00000+0  42437-3 0  9999
2 44062  87.8956  71.4761 0001849  89.3297 270.8045 13.15546577237616
ONEWEB-0013             
1 45131U 20008A   24033.55978375 -.00000846  00000+0 -24955-2 0  9991
2 45131  87.8549 226.8192 0002111 118.0759 242.0581 13.09363726192782
ONEWEB-0017             
1 45132U 20008B   24033.86971052  .00000259  00000+0  70650-3 0  9991
2 45132  87.8905 208.1576 0001448  89.6171 270.5122 13.10372548194627
